ONEWEB-0113             
1 48050U 21025J   24083.86884138  .00000401  00000+0  10628-2 0  9993
2 48050  87.8922 122.5245 0001947  90.3737 269.7616 13.13468404146558
ONEWEB-0112             
1 48051U 21025K   24083.85614398  .00000356  00000+0  93938-3 0  9997
2 48051  87.8912 122.5314 0002073  95.6031 264.5335 13.13470034146565
ONEWEB-0156             
1 48052U 21025L   24083.86566773  .00000383  00000+0  10138-2 0  9992
2 48052  87.8919 122.5233 0002047  96.5499 263.5863 13.13469075146548
ONEWEB-0161             
1 48053U 21025M   24083.83868148 -.00000064  00000+0 -21103-3 0  9994
2 48053  87.8923 122.5334 0001940 103.2719 256.8627 13.13470985146475
ONEWEB-0158             
1 48054U 21025N   24083.80059628  .00000194  00000+0  49539-3 0  9992
2 48054  87.8919 122.5342 0002058  91.0495 269.0870 13.13469635146595
ONEWEB-0157             
1 48055U 21025P   24083.82439395 -.00000222  00000+0 -64273-3 0  9994
2 48055  87.8918 122.5455 0002182 101.3754 258.7621 13.13470648146530
ONEWEB-0162             
1 48056U 21025Q   24083.86407637  .00000456  00000+0  12125-2 0  9998
2 48056  87.8917 122.5344 0002059  96.8435 263.2928 13.13470413146513
ONEWEB-0155             
1 48057U 21025R   24083.80852984  .00000081  00000+0  18624-3 0  9997
2 48057  87.8917 122.5544 0001952  95.1184 265.0168 13.13469730146640
ONEWEB-0149             
1 48058U 21025S   24083.82914402 -.00000245  00000+0 -70501-3 0  9990
2 48058  87.8917 122.5474 0002280  96.2855 263.8534 13.13467962146452
ONEWEB-0148             
1 48059U 21025T   24083.87042840  .00000432  00000+0  11468-2 0  9996
2 48059  87.8923 122.5460 0002612 102.9442 257.1979 13.13469130146583
ONEWEB-0160             
1 48060U 21025U   24083.81011439  .00000017  00000+0  12951-4 0  9991
2 48060  87.8922 122.5541 0002144  69.1338 291.0020 13.13469807146521
ONEWEB-0163             
1 48061U 21025V   24083.64347590  .00000292  00000+0  76425-3 0  9993
2 48061  87.8919 122.5821 0002022 104.3110 255.8244 13.13469714146628
ONEWEB-0159             
1 48062U 21025W   24083.86089881  .00000388  00000+0  10282-2 0  9998
2 48062  87.8920 122.5228 0002197 102.2205 257.9170 13.13470353146573
ONEWEB-0164             
1 48063U 21025X   24083.84344320  .00000039  00000+0  72284-4 0  9994
2 48063  87.8918 122.5363 0001827  95.2784 264.8553 13.13470213146558
ONEWEB-0167             
1 48064U 21025Y   24083.87278986  .00000384  00000+0  10164-2 0  9992
2 48064  87.8918 122.5412 0002022 103.0147 257.1208 13.13468826146541
ONEWEB-0166             
1 48065U 21025Z   24083.81805223 -.00000137  00000+0 -40981-3 0  9996
2 48065  87.8915 122.5384 0002216  96.9498 263.1883 13.13469442146610
ONEWEB-0151             
1 48066U 21025AA  24083.66727533 -.00000109  00000+0 -33432-3 0  9999
2 48066  87.8917 122.5798 0001760  96.3751 263.7578 13.13470360146530
ONEWEB-0170             
1 48067U 21025AB  24083.82756884 -.00000234  00000+0 -67602-3 0  9994
2 48067  87.8917 122.5493 0001474  81.0132 279.1164 13.13470110146512
ONEWEB-0168             
1 48068U 21025AC  24083.81327945 -.00000087  00000+0 -27323-3 0  9998
2 48068  87.8922 122.5196 0002022  97.2861 262.8498 13.13470998146521
ONEWEB-0173             
1 48069U 21025AD  24083.80535429  .00000174  00000+0  44168-3 0  9997
2 48069  87.8922 122.5319 0001793 110.5280 249.6041 13.13469968146765
ONEWEB-0171             
1 48070U 21025AE  24083.84185453  .00000059  00000+0  12729-3 0  9991
2 48070  87.8923 122.5597 0001839  98.5642 261.5696 13.13470296146589
ONEWEB-0172             
1 48071U 21025AF  24083.82121656 -.00000232  00000+0 -66896-3 0  9994
2 48071  87.8921 122.5306 0001807 100.2734 259.8598 13.13470136147477
ONEWEB-0174             
1 48072U 21025AG  24083.80376269  .00000206  00000+0  52866-3 0  9996
2 48072  87.8920 122.5482 0002162  96.3177 263.8198 13.13470304146795
ONEWEB-0175             
1 48073U 21025AH  24083.83232321 -.00000613  00000+0 -17135-2 0  9993
2 48073  87.8914 122.5361 0001585  93.0540 267.0770 13.13472426146453
ONEWEB-0177             
1 48074U 21025AJ  24083.84502591  .00000222  00000+0  57242-3 0  9992
2 48074  87.8916 122.5402 0002124 109.1404 250.9955 13.13470894146644
ONEWEB-0178             
1 48075U 21025AK  24083.86262761  .00000460  00000+0  12240-2 0  9999
2 48075  87.8926 122.5485 0001996 104.5040 255.6311 13.13470117146699
ONEWEB-0108             
1 48076U 21025AL  24083.82280812 -.00000202  00000+0 -58926-3 0  9991
2 48076  87.8916 122.5423 0002172  90.3615 269.7763 13.13469959146619
ONEWEB-0169             
1 48077U 21025AM  24083.85455541  .00000289  00000+0  75687-3 0  9994
2 48077  87.8920 122.5438 0002203  91.6441 268.4940 13.13469854145275
ONEWEB-0176             
1 48210U 21031A   24083.95752776 -.00000070  00000+0 -22227-3 0  9993
2 48210  87.8893  91.9361 0001891  88.8765 271.2581 13.14502687141212
ONEWEB-0184             
1 48211U 21031B   24083.77833382  .00000212  00000+0  53752-3 0  9990
2 48211  87.8891  91.9584 0000854  85.9088 274.2140 13.14501614141169
ONEWEB-0179             
1 48212U 21031C   24083.74820175 -.00000041  00000+0 -14491-3 0  9993
2 48212  87.8892  91.9642 0001956  93.7057 266.4297 13.14503117141204
ONEWEB-0180             
1 48213U 21031D   24083.93374176  .00000257  00000+0  65749-3 0  9999
2 48213  87.8891  91.9275 0001931  97.1939 262.9410 13.14503346141118
ONEWEB-0218             
1 48214U 21031E   24083.95594061 -.00000008  00000+0 -54940-4 0  9997
2 48214  87.8890  91.9248 0000911 111.3380 248.7847 13.14501432141271
ONEWEB-0209             
1 48215U 21031F   24083.94484103  .00000139  00000+0  34139-3 0  9992
2 48215  87.8891  91.9594 0002029  95.0325 265.1036 13.14500777141270
ONEWEB-0198             
1 48216U 21031G   24083.92898517  .00000186  00000+0  46629-3 0  9998
2 48216  87.8889  91.9677 0001585 101.5492 258.5816 13.14501622141388
ONEWEB-0189             
1 48217U 21031H   24083.94167291  .00000200  00000+0  50413-3 0  9992
2 48217  87.8893  91.9410 0001595 103.5704 256.5603 13.14501791141129
ONEWEB-0196             
1 48218U 21031J   24083.91947026  .00000133  00000+0  32324-3 0  9998
2 48218  87.8892  91.9473 0001787  91.5452 268.5882 13.14502321141129
ONEWEB-0183             
1 48219U 21031K   24083.74185822 -.00000088  00000+0 -27173-3 0  9995
2 48219  87.8891  92.0003 0001999  93.0387 267.0971 13.14503474141199
ONEWEB-0185             
1 48220U 21031L   24083.76802878  .00000172  00000+0  43005-3 0  9990
2 48220  87.8893  91.9680 0002021  97.0398 263.0961 13.14501800141124
ONEWEB-0187             
1 48221U 21031M   24083.96624822 -.00000187  00000+0 -53851-3 0  9992
2 48221  87.8891  91.9601 0002054  94.1636 265.9728 13.14502320141169
ONEWEB-0192             
1 48222U 21031N   24083.94643122  .00000171  00000+0  42602-3 0  9998
2 48222  87.8894  91.9608 0001751  91.3181 268.8150 13.14501974141072
ONEWEB-0219             
1 48223U 21031P   24083.92579055 -.00000369  00000+0 -10286-2 0  9993
2 48223  87.8891  91.9403 0001958  94.7248 265.4106 13.14502725141274
ONEWEB-0202             
1 48224U 21031Q   24083.75454379 -.00000040  00000+0 -14323-3 0  9999
2 48224  87.8892  91.9942 0001283 112.1238 248.0028 13.14503150141238
ONEWEB-0204             
1 48225U 21031R   24083.94087681  .00000204  00000+0  51594-3 0  9990
2 48225  87.8889  91.9695 0002382  87.7398 272.4004 13.14501369141151
ONEWEB-0205             
1 48226U 21031S   24083.76406291  .00000132  00000+0  32183-3 0  9996
2 48226  87.8890  91.9755 0001966  97.8620 262.2733 13.14502936141144
ONEWEB-0206             
1 48227U 21031T   24083.73710166 -.00000105  00000+0 -31790-3 0  9998
2 48227  87.8887  91.9724 0002098  96.5059 263.6310 13.14502266141092
ONEWEB-0182             
1 48228U 21031U   24083.96070112 -.00000101  00000+0 -30731-3 0  9994
2 48228  87.8893  91.9512 0002112  88.1589 271.9782 13.14502791141332
ONEWEB-0186             
1 48229U 21031V   24083.74344431 -.00000153  00000+0 -44625-3 0  9993
2 48229  87.8892  91.9590 0001842  92.2232 267.9109 13.14501913141252
ONEWEB-0181             
1 48230U 21031W   24083.94959685  .00000050  00000+0  10023-3 0  9999
2 48230  87.8894  91.9871 0001747  93.2251 266.9079 13.14502819141132
ONEWEB-0188             
1 48231U 21031X   24083.75930590  .00000037  00000+0  65870-4 0  9999
2 48231  87.8891  92.0218 0001961  92.0559 268.0795 13.14501893141019
ONEWEB-0220             
1 48232U 21031Y   24083.95118265  .00000050  00000+0  10155-3 0  9999
2 48232  87.8885  91.9529 0002059 100.1736 259.9626 13.14502995141301
ONEWEB-0165             
1 48233U 21031Z   24083.75136550 -.00001077  00000+0 -29399-2 0  9996
2 48233  87.8890  92.0037 0001736  98.1426 261.9900 13.14504748141235
ONEWEB-0199             
1 48234U 21031AA  24083.73551486 -.00000108  00000+0 -32654-3 0  9997
2 48234  87.8892  91.9780 0001934  93.9811 266.1539 13.14503289141135
ONEWEB-0203             
1 48235U 21031AB  24083.95435632  .00000061  00000+0  13135-3 0  9995
2 48235  87.8889  91.9352 0001556  76.2674 283.8629 13.14502403141175
ONEWEB-0197             
1 48236U 21031AC  24083.92977820  .00000252  00000+0  64543-3 0  9994
2 48236  87.8893  91.9481 0002305  87.3460 272.7934 13.14501807141086
ONEWEB-0194             
1 48237U 21031AD  24083.52777705  .00000020  00000+0  20685-4 0  9994
2 48237  87.8890  92.0204 0001784  80.3710 279.7621 13.14502253141200
ONEWEB-0193             
1 48238U 21031AE  24083.77199091  .00000301  00000+0  77822-3 0  9994
2 48238  87.8893  91.9802 0001741  92.3254 267.8075 13.14503122141189
ONEWEB-0191             
1 48239U 21031AF  24083.93532704  .00000210  00000+0  53241-3 0  9993
2 48239  87.8890  91.9336 0001838  89.3606 270.7734 13.14501675141066
ONEWEB-0195             
1 48240U 21031AG  24083.76009734  .00000066  00000+0  14403-3 0  9994
2 48240  87.8889  91.9683 0001709 104.5321 255.5998 13.14502528141029
